OBJECT B                
1 51825U 22019B   25102.88834589  .00036802  00000+0  99334-3 0  9997
2 51825  97.3889 179.0426 0009872 249.9600 110.0582 15.37635632173023
